NORAD_CAT_ID,OBJECT_NAME,OBJECT_TYPE,EPOCH,MEAN_MOTION,ECCENTRICITY,INCLINATION,RA_OF_ASC_NODE,ARG_OF_PERICENTER,MEAN_ANOMALY,BSTAR,MEAN_MOTION_DOT,MEAN_MOTION_DDOT,TLE_LINE0,TLE_LINE1,TLE_LINE2,SEMIMAJOR_AXIS,PERIOD,APOGEE,PERIGEE,DECAYED
56494.0,STARLINK-5530,PAYLOAD,2024-01-19 03:15:13,14.98335077,0.0002579,70.0002,272.4792,262.7761,97.3105,2.84e-05,2.46e-06,0.0,0 STARLINK-5530,1 56494U 23064AY  24019.13557210  .00000246  00000-0  28400-4 0  9993,2 56494  70.0002 272.4792 0002579 262.7761  97.3105 14.98335077 39314,6950.177,96.107,573.835,570.25,0.0
56494.0,STARLINK-5530,PAYLOAD,2024-01-19 19:16:34,14.98328472,0.0002553,70.0,270.795,263.9058,96.181,2.9425e-05,2.58e-06,0.0,0 STARLINK-5530,1 56494U 23064AY  24019.80317519  .00000258  00000-0  29425-4 0  9994,2 56494  70.0000 270.7950 0002553 263.9058  96.1810 14.98328472 39774,6950.198,96.107,573.837,570.288,0.0
56494.0,STARLINK-5530,PAYLOAD,2024-01-19 22:28:50,14.98328333,0.0002564,69.9999,270.4583,262.9885,97.0982,2.6042e-05,2.18e-06,0.0,0 STARLINK-5530,1 56494U 23064AY  24019.93669535  .00000218  00000-0  26042-4 0  9994,2 56494  69.9999 270.4583 0002564 262.9885  97.0982 14.98328333 39435,6950.198,96.107,573.845,570.281,0.0
56494.0,STARLINK-5530,PAYLOAD,2024-01-20 03:17:14,14.98329916,0.0002532,70.0,269.9536,262.6003,97.4868,4.1809e-05,4.06e-06,0.0,0 STARLINK-5530,1 56494U 23064AY  24020.13697385  .00000406  00000-0  41809-4 0  9999,2 56494  70.0000 269.9536 0002532 262.6003  97.4868 14.98329916 39464,6950.193,96.107,573.818,570.298,0.0
56494.0,STARLINK-5530,PAYLOAD,2024-01-20 19:18:35,14.9832862,0.0002506,70.0002,268.2712,251.0548,109.0339,-6.1138e-05,-8.22e-06,0.0,0 STARLINK-5530,1 56494U 23064AY  24020.80457731 -.00000822  00000-0 -61138-4 0  9993,2 56494  70.0002 268.2712 0002506 251.0548 109.0339 14.98328620 39926,6950.197,96.107,573.804,570.32,0.0
56494.0,STARLINK-5530,PAYLOAD,2024-01-20 22:30:51,14.98325501,0.0002514,70.0002,267.9339,246.0534,114.0362,-5.5106e-05,-7.5e-06,0.0,0 STARLINK-5530,1 56494U 23064AY  24020.93809908 -.00000750  00000-0 -55106-4 0  9992,2 56494  70.0002 267.9339 0002514 246.0534 114.0362 14.98325501 39584,6950.207,96.107,573.819,570.325,0.0
56494.0,STARLINK-5530,PAYLOAD,2024-01-21 01:43:07,14.98327674,0.0002638,69.9995,267.5949,261.8801,98.2059,-2.1471e-05,-3.49e-06,0.0,0 STARLINK-5530,1 56494U 23064AY  24021.07161739 -.00000349  00000-0 -21471-4 0  9993,2 56494  69.9995 267.5949 0002638 261.8801  98.2059 14.98327674 39606,6950.2,96.107,573.899,570.232,0.0
56494.0,STARLINK-5530,PAYLOAD,2024-01-21 19:20:36,14.98327912,0.0002735,69.9992,265.7431,265.066,95.0187,2.4757e-05,2.02e-06,0.0,0 STARLINK-5530,1 56494U 23064AY  24021.80597584  .00000202  00000-0  24757-4 0  9991,2 56494  69.9992 265.7431 0002735 265.0660  95.0187 14.98327912 40071,6950.199,96.107,573.965,570.163,0.0
56494.0,STARLINK-5530,PAYLOAD,2024-01-21 22:32:52,14.98330157,0.0002705,69.9993,265.4067,261.9282,98.157,2.8131e-06,-5.9e-07,0.0,0 STARLINK-5530,1 56494U 23064AY  24021.93949508 -.00000059  00000-0  28131-5 0  9994,2 56494  69.9993 265.4067 0002705 261.9282  98.1570 14.98330157 39732,6950.192,96.107,573.937,570.177,0.0
56494.0,STARLINK-5530,PAYLOAD,2024-01-22 01:45:08,14.9833229,0.0002676,69.9994,265.0702,263.6499,96.4355,4.781e-05,4.78e-06,0.0,0 STARLINK-5530,1 56494U 23064AY  24022.07301243  .00000478  00000-0  47810-4 0  9996,2 56494  69.9994 265.0702 0002676 263.6499  96.4355 14.98332290 39755,6950.186,96.107,573.911,570.191,0.0
56494.0,STARLINK-5530,PAYLOAD,2024-01-22 19:22:37,14.9832718,0.0002797,69.9992,263.2189,265.8388,94.2452,1.7874e-05,1.2e-06,0.0,0 STARLINK-5530,1 56494U 23064AY  24022.80737648  .00000120  00000-0  17874-4 0  9990,2 56494  69.9992 263.2189 0002797 265.8388  94.2452 14.98327180 40227,6950.202,96.107,574.011,570.123,0.0
56494.0,STARLINK-5530,PAYLOAD,2024-01-22 22:34:53,14.98326979,0.0002803,69.9992,262.8823,265.8662,94.2176,1.4255e-05,7.7e-07,0.0,0 STARLINK-5530,1 56494U 23064AY  24022.94089687  .00000077  00000-0  14255-4 0  9999,2 56494  69.9992 262.8823 0002803 265.8662  94.2176 14.98326979 39888,6950.202,96.107,574.015,570.119,0.0
56494.0,STARLINK-5530,PAYLOAD,2024-01-23 01:47:09,14.98329642,0.0002773,69.9993,262.5457,265.9176,94.1667,4.5136e-05,4.46e-06,0.0,0 STARLINK-5530,1 56494U 23064AY  24023.07441437  .00000446  00000-0  45136-4 0  9991,2 56494  69.9993 262.5457 0002773 265.9176  94.1667 14.98329642 39903,6950.194,96.107,573.986,570.132,0.0
56494.0,STARLINK-5530,PAYLOAD,2024-01-23 16:12:21,14.98333676,0.0002732,69.9994,261.0315,263.4853,96.5995,3.5846e-06,-5e-07,0.0,0 STARLINK-5530,1 56494U 23064AY  24023.67525251 -.00000050  00000-0  35846-5 0  9994,2 56494  69.9994 261.0315 0002732 263.4853  96.5995 14.98333676 40354,6950.182,96.107,573.945,570.148,0.0
56494.0,STARLINK-5530,PAYLOAD,2024-01-23 22:36:54,14.98333243,0.0002734,69.9994,260.3583,262.8317,97.2531,-1.0728e-06,-1.06e-06,0.0,0 STARLINK-5530,1 56494U 23064AY  24023.94229218 -.00000106  00000-0 -10728-5 0  9993,2 56494  69.9994 260.3583 0002734 262.8317  97.2531 14.98333243 40032,6950.183,96.107,573.948,570.148,0.0
56494.0,STARLINK-5530,PAYLOAD,2024-01-24 01:49:10,14.98334687,0.0002728,69.9994,260.022,262.8199,97.265,1.4887e-05,8.5e-07,0.0,0 STARLINK-5530,1 56494U 23064AY  24024.07581047  .00000085  00000-0  14887-4 0  9992,2 56494  69.9994 260.0220 0002728 262.8199  97.2650 14.98334687 40055,6950.178,96.107,573.939,570.147,0.0
56494.0,STARLINK-5530,PAYLOAD,2024-01-24 19:26:38,14.98328259,0.0002556,69.9999,258.1709,257.9152,102.1721,4.8417e-05,4.85e-06,0.0,0 STARLINK-5530,1 56494U 23064AY  24024.81017231  .00000485  00000-0  48417-4 0  9993,2 56494  69.9999 258.1709 0002556 257.9152 102.1721 14.98328259 40528,6950.198,96.107,573.84,570.287,0.0
56494.0,STARLINK-5530,PAYLOAD,2024-01-24 22:38:55,14.98327144,0.0002612,69.9999,257.8344,261.5766,98.5097,3.3179e-05,3.03e-06,0.0,0 STARLINK-5530,1 56494U 23064AY  24024.94369370  .00000303  00000-0  33179-4 0  9999,2 56494  69.9999 257.8344 0002612 261.5766  98.5097 14.98327144 40182,6950.202,96.107,573.882,570.251,0.0
56494.0,STARLINK-5530,PAYLOAD,2024-01-25 01:51:11,14.98329394,0.0002754,69.9996,257.4975,264.2427,95.8418,5.0007e-05,5.04e-06,0.0,0 STARLINK-5530,1 56494U 23064AY  24025.07721193  .00000504  00000-0  50007-4 0  9991,2 56494  69.9996 257.4975 0002754 264.2427  95.8418 14.98329394 40205,6950.195,96.107,573.974,570.146,0.0
56494.0,STARLINK-5530,PAYLOAD,2024-01-25 19:28:40,14.98327354,0.0002678,70.0002,255.6467,260.5627,99.5229,-2.0457e-05,-3.37e-06,0.0,0 STARLINK-5530,1 56494U 23064AY  24025.81157467 -.00000337  00000-0 -20457-4 0  9992,2 56494  70.0002 255.6467 0002678 260.5627  99.5229 14.98327354 40674,6950.201,96.107,573.927,570.205,0.0
56494.0,STARLINK-5530,PAYLOAD,2024-01-25 22:40:56,14.98317838,0.0002911,70.0001,255.31,260.8588,99.2242,0.00016001,1.816e-05,0.0,0 STARLINK-5530,1 56494U 23064AY  24025.94509566  .00001816  00000-0  16001-3 0  9997,2 56494  70.0001 255.3100 0002911 260.8588  99.2242 14.98317838 40334,6950.231,96.108,574.119,570.072,0.0
56494.0,STARLINK-5530,PAYLOAD,2024-01-26 00:17:04,14.98328469,0.0002778,70.0,255.1418,264.578,95.5063,-1.0362e-05,-2.17e-06,0.0,0 STARLINK-5530,1 56494U 23064AY  24026.01185390 -.00000217  00000-0 -10362-4 0  9992,2 56494  70.0000 255.1418 0002778 264.5780  95.5063 14.98328469 40342,6950.198,96.107,573.993,570.132,0.0
56494.0,STARLINK-5530,PAYLOAD,2024-01-26 19:30:40,14.9833305,0.0002745,69.9999,253.1214,261.4938,98.591,3.9507e-05,3.78e-06,0.0,0 STARLINK-5530,1 56494U 23064AY  24026.81296840  .00000378  00000-0  39507-4 0  9991,2 56494  69.9999 253.1214 0002745 261.4938  98.5910 14.98333050 40822,6950.183,96.107,573.956,570.141,0.0
56494.0,STARLINK-5530,PAYLOAD,2024-01-27 00:19:04,14.98334486,0.0002742,69.9997,252.616,263.5589,96.5257,5.3545e-05,5.46e-06,0.0,0 STARLINK-5530,1 56494U 23064AY  24027.01324668  .00000546  00000-0  53545-4 0  9999,2 56494  69.9997 252.6160 0002742 263.5589  96.5257 14.98334486 40495,6950.179,96.107,573.95,570.138,0.0
56494.0,STARLINK-5530,PAYLOAD,2024-01-27 19:32:41,14.98326219,0.0002644,69.9999,250.5957,256.6287,103.4578,-3.0462e-06,-1.29e-06,0.0,0 STARLINK-5530,1 56494U 23064AY  24027.81437313 -.00000129  00000-0 -30462-5 0  9992,2 56494  69.9999 250.5957 0002644 256.6287 103.4578 14.98326219 40979,6950.205,96.107,573.907,570.232,0.0
56494.0,STARLINK-5530,PAYLOAD,2024-01-27 21:08:50,14.98325104,0.000266,70.0,250.4276,256.3244,103.7619,-1.774e-05,-3.05e-06,0.0,0 STARLINK-5530,1 56494U 23064AY  24027.88113435 -.00000305  00000-0 -17740-4 0  9994,2 56494  70.0000 250.4276 0002660 256.3244 103.7619 14.98325104 40629,6950.208,96.107,573.922,570.224,0.0
56494.0,STARLINK-5530,PAYLOAD,2024-01-28 14:46:18,14.9833281,0.0002746,69.9995,248.5749,264.6071,95.4775,-3.5706e-05,-5.19e-06,0.0,0 STARLINK-5530,1 56494U 23064AY  24028.61549083 -.00000519  00000-0 -35706-4 0  9997,2 56494  69.9995 248.5749 0002746 264.6071  95.4775 14.98332810 40731,6950.184,96.107,573.958,570.141,0.0
56494.0,STARLINK-5530,PAYLOAD,2024-01-28 19:34:42,14.98332605,0.0002753,69.9997,248.0699,265.255,94.8295,-3.4839e-05,-5.09e-06,0.0,0 STARLINK-5530,1 56494U 23064AY  24028.81577060 -.00000509  00000-0 -34839-4 0  9990,2 56494  69.9997 248.0699 0002753 265.2550  94.8295 14.98332605 41125,6950.185,96.107,573.963,570.136,0.0
56494.0,STARLINK-5530,PAYLOAD,2024-01-28 22:46:58,14.98332457,0.0002762,69.9997,247.7335,266.0526,94.0318,-3.5247e-05,-5.14e-06,0.0,0 STARLINK-5530,1 56494U 23064AY  24028.94929057 -.00000514  00000-0 -35247-4 0  9991,2 56494  69.9997 247.7335 0002762 266.0526  94.0318 14.98332457 40784,6950.185,96.107,573.97,570.131,0.0
56494.0,STARLINK-5530,PAYLOAD,2024-01-29 00:23:06,14.98333219,0.0002764,69.9999,247.5657,266.6294,93.4549,-2.7803e-05,-4.25e-06,0.0,0 STARLINK-5530,1 56494U 23064AY  24029.01604984 -.00000425  00000-0 -27803-4 0  9999,2 56494  69.9999 247.5657 0002764 266.6294  93.4549 14.98333219 40798,6950.183,96.107,573.969,570.127,0.0
